0 COSMOS 2301
1 23443U 94086C   13282.13864191  .00000015  00000-0  26798-4 0  3369
2 23443 082.5751 039.3594 0001252 191.7651 222.0416 12.62114863865481
0 COSMOS 2301
1 23443U 94086C   13284.44970115 -.00000006  00000-0 -94352-4 0  3373
2 23443 082.5756 037.8843 0001352 187.9944 281.1375 12.62115067865778
0 COSMOS 2301
1 23443U 94086C   13286.76161772  .00000009  00000-0 -10222-4 0  3388
2 23443 082.5760 036.4089 0001434 184.7355 343.6174 12.62114867866063
0 COSMOS 2301
1 23443U 94086C   13288.81093266  .00000040  00000-0  16639-3 0  3390
2 23443 082.5761 035.1012 0001508 181.6754 293.3325 12.62114712866324
0 COSMOS 2301
1 23443U 94086C   13291.09629821  .00000047  00000-0  20409-3 0  3405
2 23443 082.5760 033.6431 0001595 176.4846 237.1652 12.62114667866611
0 COSMOS 2301
1 23443U 94086C   13293.40734193  .00000034  00000-0  13013-3 0  3411
2 23443 082.5758 032.1684 0001693 172.2923 296.6118 12.62114938866901
0 COSMOS 2301
1 23443U 94086C   13295.78686661  .00000011  00000-0  38846-5 0  3429
2 23443 082.5759 030.6499 0001772 169.9862 305.1693 12.62115215867209
